STARLINK-35492          
1 65926U 25225S   26068.50606177  .00023548  00000+0  80434-3 0  9991
2 65926  53.1591 166.2683 0001060 123.8936 236.2166 15.30212672 24387
2025-313BE              
1 67482U 25313BE  26068.69721505  .00077178  00000+0  26504-2 0  9996
2 67482  97.3989 145.3568 0007208 335.3714  24.7181 15.29801687  7972
